[{"OBJECT_NAME":"FENGYUN 1C DEB","OBJECT_ID":"1999-025AQN","EPOCH":"2026-03-05T02:25:41.532960","MEAN_MOTION":13.56891333,"ECCENTRICITY":0.03232376,"INCLINATION":99.6319,"RA_OF_ASC_NODE":110.0541,"ARG_OF_PERICENTER":319.2972,"MEAN_ANOMALY":38.4412,"EPHEMERIS_TYPE":0,"CLASSIFICATION_TYPE":"U","NORAD_CAT_ID":30680,"ELEMENT_SET_NO":999,"REV_AT_EPOCH":93370,"BSTAR":0.0049593449,"MEAN_MOTION_DOT":4.894e-5,"MEAN_MOTION_DDOT":0},{"OBJECT_NAME":"FENGYUN 1C DEB","OBJECT_ID":"1999-025AQR","EPOCH":"2026-03-05T13:17:47.434272","MEAN_MOTION":14.00742667,"ECCENTRICITY":0.0137965,"INCLINATION":99.4179,"RA_OF_ASC_NODE":83.5981,"ARG_OF_PERICENTER":358.685,"MEAN_ANOMALY":152.5441,"EPHEMERIS_TYPE":0,"CLASSIFICATION_TYPE":"U","NORAD_CAT_ID":30683,"ELEMENT_SET_NO":999,"REV_AT_EPOCH":96710,"BSTAR":0.0016903,"MEAN_MOTION_DOT":2.69e-5,"MEAN_MOTION_DDOT":0},{"OBJECT_NAME":"FENGYUN 1C DEB","OBJECT_ID":"1999-025AQS","EPOCH":"2026-03-05T14:55:11.775648","MEAN_MOTION":13.67046744,"ECCENTRICITY":0.0234661,"INCLINATION":99.5211,"RA_OF_ASC_NODE":109.8123,"ARG_OF_PERICENTER":57.4413,"MEAN_ANOMALY":304.9161,"EPHEMERIS_TYPE":0,"CLASSIFICATION_TYPE":"U","NORAD_CAT_ID":30684,"ELEMENT_SET_NO":999,"REV_AT_EPOCH":94761,"BSTAR":0.0015709,"MEAN_MOTION_DOT":1.547e-5,"MEAN_MOTION_DDOT":0},{"OBJECT_NAME":"FENGYUN 1C DEB","OBJECT_ID":"1999-025AQU","EPOCH":"2026-03-05T05:48:51.891264","MEAN_MOTION":14.74928753,"ECCENTRICITY":0.0140517,"INCLINATION":99.0314,"RA_OF_ASC_NODE":272.5903,"ARG_OF_PERICENTER":223.607,"MEAN_ANOMALY":202.9107,"EPHEMERIS_TYPE":0,"CLASSIFICATION_TYPE":"U","NORAD_CAT_ID":30686,"ELEMENT_SET_NO":999,"REV_AT_EPOCH":818,"BSTAR":0.0010303,"MEAN_MOTION_DOT":8.056e-5,"MEAN_MOTION_DDOT":0},{"OBJECT_NAME":"FENGYUN 1C DEB","OBJECT_ID":"1999-025AQW","EPOCH":"2026-03-05T16:27:31.264128","MEAN_MOTION":14.33536509,"ECCENTRICITY":0.0016518,"INCLINATION":98.6911,"RA_OF_ASC_NODE":143.4107,"ARG_OF_PERICENTER":81.9595,"MEAN_ANOMALY":70.9409,"EPHEMERIS_TYPE":0,"CLASSIFICATION_TYPE":"U","NORAD_CAT_ID":30688,"ELEMENT_SET_NO":999,"REV_AT_EPOCH":98448,"BSTAR":0.0019025,"MEAN_MOTION_DOT":5.229e-5,"MEAN_MOTION_DDOT":0},{"OBJECT_NAME":"FENGYUN 1C DEB","OBJECT_ID":"1999-025AQX","EPOCH":"2026-03-05T19:05:25.253952","MEAN_MOTION":14.11947838,"ECCENTRICITY":0.0109559,"INCLINATION":98.7183,"RA_OF_ASC_NODE":53.6705,"ARG_OF_PERICENTER":227.0111,"MEAN_ANOMALY":255.8414,"EPHEMERIS_TYPE":0,"CLASSIFICATION_TYPE":"U","NORAD_CAT_ID":30689,"ELEMENT_SET_NO":999,"REV_AT_EPOCH":98062,"BSTAR":0.0004349,"MEAN_MOTION_DOT":7.98e-6,"MEAN_MOTION_DDOT":0},{"OBJECT_NAME":"FENGYUN 1C DEB","OBJECT_ID":"1999-025AQY","EPOCH":"2026-03-05T01:13:39.253728","MEAN_MOTION":14.02883009,"ECCENTRICITY":0.01007703,"INCLINATION":99.165,"RA_OF_ASC_NODE":359.921,"ARG_OF_PERICENTER":209.3356,"MEAN_ANOMALY":285.1482,"EPHEMERIS_TYPE":0,"CLASSIFICATION_TYPE":"U","NORAD_CAT_ID":30690,"ELEMENT_SET_NO":999,"REV_AT_EPOCH":96861,"BSTAR":0.0018723795,"MEAN_MOTION_DOT":2.989e-5,"MEAN_MOTION_DDOT":0},{"OBJECT_NAME":"FENGYUN 1C DEB","OBJECT_ID":"1999-025AQZ","EPOCH":"2026-03-05T12:50:48.898752","MEAN_MOTION":13.89703888,"ECCENTRICITY":0.0139175,"INCLINATION":98.742,"RA_OF_ASC_NODE":75.9359,"ARG_OF_PERICENTER":7.1452,"MEAN_ANOMALY":121.1314,"EPHEMERIS_TYPE":0,"CLASSIFICATION_TYPE":"U","NORAD_CAT_ID":30691,"ELEMENT_SET_NO":999,"REV_AT_EPOCH":96266,"BSTAR":0.0015571,"MEAN_MOTION_DOT":2.024e-5,"MEAN_MOTION_DDOT":0},{"OBJECT_NAME":"FENGYUN 1C DEB","OBJECT_ID":"1999-025ARB","EPOCH":"2026-03-05T12:16:13.257120","MEAN_MOTION":14.13407578,"ECCENTRICITY":0.0028263,"INCLINATION":98.6969,"RA_OF_ASC_NODE":52.2658,"ARG_OF_PERICENTER":294.6296,"MEAN_ANOMALY":65.1934,"EPHEMERIS_TYPE":0,"CLASSIFICATION_TYPE":"U","NORAD_CAT_ID":30693,"ELEMENT_SET_NO":999,"REV_AT_EPOCH":98104,"BSTAR":0.00041868,"MEAN_MOTION_DOT":7.47e-6,"MEAN_MOTION_DDOT":0},{"OBJECT_NAME":"FENGYUN 1C DEB","OBJECT_ID":"1999-025ARC","EPOCH":"2026-03-05T15:32:03.213888","MEAN_MOTION":14.88466234,"ECCENTRICITY":0.0128639,"INCLINATION":99.0576,"RA_OF_ASC_NODE":47.4339,"ARG_OF_PERICENTER":31.315,"MEAN_ANOMALY":329.5643,"EPHEMERIS_TYPE":0,"CLASSIFICATION_TYPE":"U","NORAD_CAT_ID":30694,"ELEMENT_SET_NO":999,"REV_AT_EPOCH":1328,"BSTAR":0.0017412,"MEAN_MOTION_DOT":0.00018826,"MEAN_MOTION_DDOT":0},{"OBJECT_NAME":"FENGYUN 1C DEB","OBJECT_ID":"1999-025ARE","EPOCH":"2026-03-05T16:37:07.490784","MEAN_MOTION":14.45293958,"ECCENTRICITY":0.0087671,"INCLINATION":98.377,"RA_OF_ASC_NODE":117.649,"ARG_OF_PERICENTER":233.5722,"MEAN_ANOMALY":248.9937,"EPHEMERIS_TYPE":0,"CLASSIFICATION_TYPE":"U","NORAD_CAT_ID":30696,"ELEMENT_SET_NO":999,"REV_AT_EPOCH":99502,"BSTAR":0.00097357,"MEAN_MOTION_DOT":3.537e-5,"MEAN_MOTION_DDOT":0},{"OBJECT_NAME":"FENGYUN 1C DEB","OBJECT_ID":"1999-025ARF","EPOCH":"2026-03-05T15:57:48.941856","MEAN_MOTION":14.13982131,"ECCENTRICITY":0.0084511,"INCLINATION":98.897,"RA_OF_ASC_NODE":126.1586,"ARG_OF_PERICENTER":310.0209,"MEAN_ANOMALY":203.5559,"EPHEMERIS_TYPE":0,"CLASSIFICATION_TYPE":"U","NORAD_CAT_ID":30697,"ELEMENT_SET_NO":999,"REV_AT_EPOCH":97432,"BSTAR":0.0012582,"MEAN_MOTION_DOT":2.428e-5,"MEAN_MOTION_DDOT":0},{"OBJECT_NAME":"FENGYUN 1C DEB","OBJECT_ID":"1999-025ARH","EPOCH":"2026-03-05T07:44:40.404768","MEAN_MOTION":14.48625375,"ECCENTRICITY":0.0001366,"INCLINATION":99.3132,"RA_OF_ASC_NODE":197.0944,"ARG_OF_PERICENTER":51.709,"MEAN_ANOMALY":308.4223,"EPHEMERIS_TYPE":0,"CLASSIFICATION_TYPE":"U","NORAD_CAT_ID":30699,"ELEMENT_SET_NO":999,"REV_AT_EPOCH":98808,"BSTAR":0.0029205,"MEAN_MOTION_DOT":0.00010954,"MEAN_MOTION_DDOT":0},{"OBJECT_NAME":"FENGYUN 1C DEB","OBJECT_ID":"1999-025ARJ","EPOCH":"2026-03-04T07:17:15.649440","MEAN_MOTION":14.23879384,"ECCENTRICITY":0.0085145,"INCLINATION":98.5332,"RA_OF_ASC_NODE":94.261,"ARG_OF_PERICENTER":265.9681,"MEAN_ANOMALY":93.1763,"EPHEMERIS_TYPE":0,"CLASSIFICATION_TYPE":"U","NORAD_CAT_ID":30700,"ELEMENT_SET_NO":999,"REV_AT_EPOCH":98730,"BSTAR":0.00023055272,"MEAN_MOTION_DOT":5.05e-6,"MEAN_MOTION_DDOT":0},{"OBJECT_NAME":"FENGYUN 1C DEB","OBJECT_ID":"1999-025ARK","EPOCH":"2026-03-05T09:06:48.157920","MEAN_MOTION":14.13941828,"ECCENTRICITY":0.0033867,"INCLINATION":98.7048,"RA_OF_ASC_NODE":108.591,"ARG_OF_PERICENTER":226.0999,"MEAN_ANOMALY":200.7487,"EPHEMERIS_TYPE":0,"CLASSIFICATION_TYPE":"U","NORAD_CAT_ID":30701,"ELEMENT_SET_NO":999,"REV_AT_EPOCH":98287,"BSTAR":1.7782e-5,"MEAN_MOTION_DOT":-9.0e-8,"MEAN_MOTION_DDOT":0},{"OBJECT_NAME":"FENGYUN 1C DEB","OBJECT_ID":"1999-025ARL","EPOCH":"2026-03-05T18:36:34.985952","MEAN_MOTION":14.03860908,"ECCENTRICITY":0.0070574,"INCLINATION":98.7652,"RA_OF_ASC_NODE":86.665,"ARG_OF_PERICENTER":70.1491,"MEAN_ANOMALY":346.2167,"EPHEMERIS_TYPE":0,"CLASSIFICATION_TYPE":"U","NORAD_CAT_ID":30702,"ELEMENT_SET_NO":999,"REV_AT_EPOCH":97327,"BSTAR":0.0011516,"MEAN_MOTION_DOT":1.815e-5,"MEAN_MOTION_DDOT":0}]
