FENGYUN 1C DEB          
1 30680U 99025AQN 26064.10117515  .00004894  00000+0  49593-2 0  9997
2 30680  99.6319 110.0541 0323237 319.2972  38.4412 13.56891333933707
FENGYUN 1C DEB          
1 30683U 99025AQR 26064.55402123  .00002690  00000+0  16903-2 0  9992
2 30683  99.4179  83.5981 0137965 358.6850 152.5441 14.00742667967103
FENGYUN 1C DEB          
1 30684U 99025AQS 26064.62166407  .00001547  00000+0  15709-2 0  9996
2 30684  99.5211 109.8123 0234661  57.4413 304.9161 13.67046744947613
FENGYUN 1C DEB          
1 30686U 99025AQU 26064.24226726  .00008056  00000+0  10303-2 0  9994
2 30686  99.0314 272.5903 0140517 223.6070 202.9107 14.74928753  8185
FENGYUN 1C DEB          
1 30688U 99025AQW 26064.68577852  .00005229  00000+0  19025-2 0  9992
2 30688  98.6911 143.4107 0016518  81.9595  70.9409 14.33536509984480
FENGYUN 1C DEB          
1 30689U 99025AQX 26064.79543118  .00000798  00000+0  43490-3 0  9993
2 30689  98.7183  53.6705 0109559 227.0111 255.8414 14.11947838980623
FENGYUN 1C DEB          
1 30690U 99025AQY 26064.05114877  .00002989  00000+0  18724-2 0  9995
2 30690  99.1650 359.9210 0100770 209.3356 285.1482 14.02883009968617
FENGYUN 1C DEB          
1 30691U 99025AQZ 26064.53528818  .00002024  00000+0  15571-2 0  9990
2 30691  98.7420  75.9359 0139175   7.1452 121.1314 13.89703888962661
FENGYUN 1C DEB          
1 30693U 99025ARB 26064.51126455  .00000747  00000+0  41868-3 0  9990
2 30693  98.6969  52.2658 0028263 294.6296  65.1934 14.13407578981047
FENGYUN 1C DEB          
1 30694U 99025ARC 26064.64725942  .00018826  00000+0  17412-2 0  9995
2 30694  99.0576  47.4339 0128639  31.3150 329.5643 14.88466234 13284
FENGYUN 1C DEB          
1 30696U 99025ARE 26064.69244781  .00003537  00000+0  97357-3 0  9999
2 30696  98.3770 117.6490 0087671 233.5722 248.9937 14.45293958995028
FENGYUN 1C DEB          
1 30697U 99025ARF 26064.66514979  .00002428  00000+0  12582-2 0  9990
2 30697  98.8970 126.1586 0084511 310.0209 203.5559 14.13982131974328
FENGYUN 1C DEB          
1 30699U 99025ARH 26064.32268987  .00010954  00000+0  29205-2 0  9993
2 30699  99.3132 197.0944 0001366  51.7090 308.4223 14.48625375988088
FENGYUN 1C DEB          
1 30700U 99025ARJ 26063.30365335  .00000505  00000+0  23055-3 0  9997
2 30700  98.5332  94.2610 0085145 265.9681  93.1763 14.23879384987309
FENGYUN 1C DEB          
1 30701U 99025ARK 26064.37972405 -.00000009  00000+0  17782-4 0  9999
2 30701  98.7048 108.5910 0033867 226.0999 200.7487 14.13941828982870
FENGYUN 1C DEB          
1 30702U 99025ARL 26064.77540493  .00001815  00000+0  11516-2 0  9994
2 30702  98.7652  86.6650 0070574  70.1491 346.2167 14.03860908973273
